{
    "links": {
        "self": "http://www.neowsapp.com/rest/v1/neo/3651157?api_key=iIulBulltgU6a56xZRHN4H3l9WmuAYTsLGpBGhQ2"
    },
    "id": "3651157",
    "neo_reference_id": "3651157",
    "name": "(2013 TV132)",
    "designation": "2013 TV132",
    "nasa_jpl_url": "http://ssd.jpl.nasa.gov/sbdb.cgi?sstr=3651157",
    "absolute_magnitude_h": 26.6,
    "estimated_diameter": {
        "kilometers": {
            "estimated_diameter_min": 0.0127219879,
            "estimated_diameter_max": 0.0284472297
        },
        "meters": {
            "estimated_diameter_min": 12.7219878539,
            "estimated_diameter_max": 28.4472296503
        },
        "miles": {
            "estimated_diameter_min": 0.0079050743,
            "estimated_diameter_max": 0.0176762835
        },
        "feet": {
            "estimated_diameter_min": 41.7388066307,
            "estimated_diameter_max": 93.330808926
        }
    },
    "is_potentially_hazardous_asteroid": false,
    "close_approach_data": [
        {
            "close_approach_date": "2013-10-05",
            "close_approach_date_full": "2013-Oct-05 09:51",
            "epoch_date_close_approach": 1380966660000,
            "relative_velocity": {
                "kilometers_per_second": "9.5316936534",
                "kilometers_per_hour": "34314.0971522109",
                "miles_per_hour": "21321.4455332724"
            },
            "miss_distance": {
                "astronomical": "0.0221452251",
                "lunar": "8.6144925639",
                "kilometers": "3312878.505630537",
                "miles": "2058527.2482219306"
            },
            "orbiting_body": "Earth"
        },
        {
            "close_approach_date": "2094-11-04",
            "close_approach_date_full": "2094-Nov-04 19:41",
            "epoch_date_close_approach": 3939738060000,
            "relative_velocity": {
                "kilometers_per_second": "19.2032607067",
                "kilometers_per_hour": "69131.7385441891",
                "miles_per_hour": "42955.7738748602"
            },
            "miss_distance": {
                "astronomical": "0.3252372383",
                "lunar": "126.5172856987",
                "kilometers": "48654798.094362421",
                "miles": "30232689.6273905698"
            },
            "orbiting_body": "Earth"
        }
    ],
    "orbital_data": {
        "orbit_id": "9",
        "orbit_determination_date": "2017-04-06 08:44:12",
        "first_observation_date": "2013-10-12",
        "last_observation_date": "2013-11-02",
        "data_arc_in_days": 21,
        "observations_used": 34,
        "orbit_uncertainty": "7",
        "minimum_orbit_intersection": ".00206124",
        "jupiter_tisserand_invariant": "3.453",
        "epoch_osculation": "2459000.5",
        "eccentricity": ".5569547088592133",
        "semi_major_axis": "2.190663208354086",
        "inclination": "1.789817608987637",
        "ascending_node_longitude": "192.0373561347755",
        "orbital_period": "1184.300325191389",
        "perihelion_distance": ".970563018936646",
        "perihelion_argument": "152.5876806809104",
        "aphelion_distance": "3.410763397771527",
        "perihelion_time": "2458919.623987480949",
        "mean_anomaly": "24.58444356346282",
        "mean_motion": ".3039769493788007",
        "equinox": "J2000",
        "orbit_class": {
            "orbit_class_type": "APO",
            "orbit_class_description": "Near-Earth asteroid orbits which cross the Earth’s orbit similar to that of 1862 Apollo",
            "orbit_class_range": "a (semi-major axis) > 1.0 AU; q (perihelion) < 1.017 AU"
        }
    },
    "is_sentry_object": false
}